{"type": "FeatureCollection", "features": [ {"type": "Feature", "properties": {"norad_id": 34117, "name": "COSMOS 2251 DEB", "group": "cosmos-2251-debris", "lat": 68.84427698892819, "lon": 46.90977927256848, "alt_km": 712.7985616505412, "timestamp": "2025-12-04T09:47:37.913469+00:00", "meta": {"OBJECT_NAME": "COSMOS 2251 DEB", "OBJECT_ID": "1993-036KN", "EPOCH": "2025-12-04T02:46:32.627424", "MEAN_MOTION": 14.39958209, "ECCENTRICITY": 0.0054384, "INCLINATION": 74.0403, "RA_OF_ASC_NODE": 359.7622, "ARG_OF_PERICENTER": 78.7604, "MEAN_ANOMALY": 281.9656, "EPHEMERIS_TYPE": 0, "CLASSIFICATION_TYPE": "U", "NORAD_CAT_ID": 34117, "ELEMENT_SET_NO": 999, "REV_AT_EPOCH": 87999, "BSTAR": 0.0012216, "MEAN_MOTION_DOT": 3.888e-05, "MEAN_MOTION_DDOT": 0}, "tle": {"line1": "1 34117U 93036KN  25338.11565541  .00003888  00000+0  12216-2 0  9996", "line2": "2 34117  74.0403 359.7622 0054384  78.7604 281.9656 14.39958209879995"}}, "geometry": {"type": "Point", "coordinates": [46.90977927256848, 68.84427698892819]}}, {"type": "Feature", "properties": {"norad_id": 34118, "name": "COSMOS 2251 DEB", "group": "cosmos-2251-debris", "lat": -22.16347005859359, "lon": -100.57575578474956, "alt_km": 614.0662387306047, "timestamp": "2025-12-04T09:47:37.913479+00:00", "meta": {"OBJECT_NAME": "COSMOS 2251 DEB", "OBJECT_ID": "1993-036KP", "EPOCH": "2025-12-04T01:56:33.347328", "MEAN_MOTION": 14.9336347, "ECCENTRICITY": 0.0060015, "INCLINATION": 73.9532, "RA_OF_ASC_NODE": 266.8185, "ARG_OF_PERICENTER": 99.25, "MEAN_ANOMALY": 280.3382, "EPHEMERIS_TYPE": 0, "CLASSIFICATION_TYPE": "U", "NORAD_CAT_ID": 34118, "ELEMENT_SET_NO": 999, "REV_AT_EPOCH": 89047, "BSTAR": 0.0045685, "MEAN_MOTION_DOT": 0.00049963, "MEAN_MOTION_DDOT": 0}, "tle": {"line1": "1 34118U 93036KP  25338.08094152  .00049963  00000+0  45685-2 0  9998", "line2": "2 34118  73.9532 266.8185 0060015  99.2500 280.3382 14.93363470890475"}}, "geometry": {"type": "Point", "coordinates": [-100.57575578474956, -22.16347005859359]}}, {"type": "Feature", "properties": {"norad_id": 34120, "name": "COSMOS 2251 DEB", "group": "cosmos-2251-debris", "lat": -8.73313526999551, "lon": -131.87606452781174, "alt_km": 853.0123907521656, "timestamp": "2025-12-04T09:47:37.913489+00:00", "meta": {"OBJECT_NAME": "COSMOS 2251 DEB", "OBJECT_ID": "1993-036KR", "EPOCH": "2025-12-04T03:34:11.432352", "MEAN_MOTION": 13.98668339, "ECCENTRICITY": 0.0181591, "INCLINATION": 73.9918, "RA_OF_ASC_NODE": 231.1005, "ARG_OF_PERICENTER": 60.7248, "MEAN_ANOMALY": 66.9399, "EPHEMERIS_TYPE": 0, "CLASSIFICATION_TYPE": "U", "NORAD_CAT_ID": 34120, "ELEMENT_SET_NO": 999, "REV_AT_EPOCH": 85860, "BSTAR": 0.00063906, "MEAN_MOTION_DOT": 1.034e-05, "MEAN_MOTION_DDOT": 0}, "tle": {"line1": "1 34120U 93036KR  25338.14874343  .00001034  00000+0  63906-3 0  9990", "line2": "2 34120  73.9918 231.1005 0181591  60.7248  66.9399 13.98668339858608"}}, "geometry": {"type": "Point", "coordinates": [-131.87606452781174, -8.73313526999551]}}, {"type": "Feature", "properties": {"norad_id": 34121, "name": "COSMOS 2251 DEB", "group": "cosmos-2251-debris", "lat": 48.48936591131222, "lon": 130.37480014497967, "alt_km": 920.9055209795652, "timestamp": "2025-12-04T09:47:37.913499+00:00", "meta": {"OBJECT_NAME": "COSMOS 2251 DEB", "OBJECT_ID": "1993-036KS", "EPOCH": "2025-12-03T16:22:38.788032", "MEAN_MOTION": 13.91880225, "ECCENTRICITY": 0.02397358, "INCLINATION": 73.9915, "RA_OF_ASC_NODE": 112.6905, "ARG_OF_PERICENTER": 320.0883, "MEAN_ANOMALY": 53.566, "EPHEMERIS_TYPE": 0, "CLASSIFICATION_TYPE": "U", "NORAD_CAT_ID": 34121, "ELEMENT_SET_NO": 999, "REV_AT_EPOCH": 84999, "BSTAR": 0.0014175875, "MEAN_MOTION_DOT": 2.259e-05, "MEAN_MOTION_DDOT": 0}, "tle": {"line1": "1 34121U 93036KS  25337.68239338  .00002259  00000+0  14176-2 0  9992", "line2": "2 34121  73.9915 112.6905 0239735 320.0883  53.5660 13.91880225849997"}}, "geometry": {"type": "Point", "coordinates": [130.37480014497967, 48.48936591131222]}}, {"type": "Feature", "properties": {"norad_id": 34122, "name": "COSMOS 2251 DEB", "group": "cosmos-2251-debris", "lat": -73.97113537281366, "lon": 39.85313879525029, "alt_km": 718.2799003682976, "timestamp": "2025-12-04T09:47:37.913509+00:00", "meta": {"OBJECT_NAME": "COSMOS 2251 DEB", "OBJECT_ID": "1993-036KT", "EPOCH": "2025-12-04T04:27:16.004160", "MEAN_MOTION": 14.64873166, "ECCENTRICITY": 0.0083879, "INCLINATION": 74.0347, "RA_OF_ASC_NODE": 135.0881, "ARG_OF_PERICENTER": 34.4384, "MEAN_ANOMALY": 142.2663, "EPHEMERIS_TYPE": 0, "CLASSIFICATION_TYPE": "U", "NORAD_CAT_ID": 34122, "ELEMENT_SET_NO": 999, "REV_AT_EPOCH": 88559, "BSTAR": 0.0024939, "MEAN_MOTION_DOT": 0.0001403, "MEAN_MOTION_DDOT": 0}, "tle": {"line1": "1 34122U 93036KT  25338.18560190  .00014030  00000+0  24939-2 0  9990", "line2": "2 34122  74.0347 135.0881 0083879  34.4384 142.2663 14.64873166885591"}}, "geometry": {"type": "Point", "coordinates": [39.85313879525029, -73.97113537281366]}}, {"type": "Feature", "properties": {"norad_id": 34127, "name": "COSMOS 2251 DEB", "group": "cosmos-2251-debris", "lat": 69.31410960346828, "lon": -169.7468084848377, "alt_km": 855.63437979831, "timestamp": "2025-12-04T09:47:37.913519+00:00", "meta": {"OBJECT_NAME": "COSMOS 2251 DEB", "OBJECT_ID": "1993-036KY", "EPOCH": "2025-12-03T11:34:32.989728", "MEAN_MOTION": 14.31380495, "ECCENTRICITY": 0.01146152, "INCLINATION": 74.1802, "RA_OF_ASC_NODE": 60.5926, "ARG_OF_PERICENTER": 262.7201, "MEAN_ANOMALY": 112.7932, "EPHEMERIS_TYPE": 0, "CLASSIFICATION_TYPE": "U", "NORAD_CAT_ID": 34127, "ELEMENT_SET_NO": 999, "REV_AT_EPOCH": 86639, "BSTAR": 0.0029195816, "MEAN_MOTION_DOT": 8.301e-05, "MEAN_MOTION_DDOT": 0}, "tle": {"line1": "1 34127U 93036KY  25337.48232627  .00008301  00000+0  29196-2 0  9992", "line2": "2 34127  74.1802  60.5926 0114615 262.7201 112.7932 14.31380495866392"}}, "geometry": {"type": "Point", "coordinates": [-169.7468084848377, 69.31410960346828]}}, {"type": "Feature", "properties": {"norad_id": 34128, "name": "COSMOS 2251 DEB", "group": "cosmos-2251-debris", "lat": 29.483424727707984, "lon": -36.944908986317635, "alt_km": 548.7324336173097, "timestamp": "2025-12-04T09:47:37.913529+00:00", "meta": {"OBJECT_NAME": "COSMOS 2251 DEB", "OBJECT_ID": "1993-036KZ", "EPOCH": "2025-12-04T00:19:24.901824", "MEAN_MOTION": 15.00463198, "ECCENTRICITY": 0.0026456, "INCLINATION": 73.9994, "RA_OF_ASC_NODE": 314.5221, "ARG_OF_PERICENTER": 67.9834, "MEAN_ANOMALY": 352.497, "EPHEMERIS_TYPE": 0, "CLASSIFICATION_TYPE": "U", "NORAD_CAT_ID": 34128, "ELEMENT_SET_NO": 999, "REV_AT_EPOCH": 89036, "BSTAR": 0.0041524, "MEAN_MOTION_DOT": 0.00053022, "MEAN_MOTION_DDOT": 0}, "tle": {"line1": "1 34128U 93036KZ  25338.01348266  .00053022  00000+0  41524-2 0  9999", "line2": "2 34128  73.9994 314.5221 0026456  67.9834 352.4970 15.00463198890362"}}, "geometry": {"type": "Point", "coordinates": [-36.944908986317635, 29.483424727707984]}}, {"type": "Feature", "properties": {"norad_id": 34129, "name": "COSMOS 2251 DEB", "group": "cosmos-2251-debris", "lat": -15.692264635591885, "lon": -8.785016719564547, "alt_km": 650.4567167425521, "timestamp": "2025-12-04T09:47:37.913539+00:00", "meta": {"OBJECT_NAME": "COSMOS 2251 DEB", "OBJECT_ID": "1993-036LA", "EPOCH": "2025-12-04T03:21:31.580640", "MEAN_MOTION": 14.75503723, "ECCENTRICITY": 0.0032677, "INCLINATION": 74.0353, "RA_OF_ASC_NODE": 356.3522, "ARG_OF_PERICENTER": 80.7658, "MEAN_ANOMALY": 279.721, "EPHEMERIS_TYPE": 0, "CLASSIFICATION_TYPE": "U", "NORAD_CAT_ID": 34129, "ELEMENT_SET_NO": 999, "REV_AT_EPOCH": 61171, "BSTAR": 0.0026853, "MEAN_MOTION_DOT": 0.00018455, "MEAN_MOTION_DDOT": 0}, "tle": {"line1": "1 34129U 93036LA  25338.13994885  .00018455  00000+0  26853-2 0  9996", "line2": "2 34129  74.0353 356.3522 0032677  80.7658 279.7210 14.75503723611719"}}, "geometry": {"type": "Point", "coordinates": [-8.785016719564547, -15.692264635591885]}}, {"type": "Feature", "properties": {"norad_id": 34136, "name": "COSMOS 2251 DEB", "group": "cosmos-2251-debris", "lat": 6.125368624594544, "lon": 60.82558014206483, "alt_km": 691.8882468196434, "timestamp": "2025-12-04T09:47:37.913549+00:00", "meta": {"OBJECT_NAME": "COSMOS 2251 DEB", "OBJECT_ID": "1993-036LH", "EPOCH": "2025-12-03T16:28:43.667328", "MEAN_MOTION": 14.79958477, "ECCENTRICITY": 0.00865942, "INCLINATION": 74.0219, "RA_OF_ASC_NODE": 60.4853, "ARG_OF_PERICENTER": 185.8072, "MEAN_ANOMALY": 298.4779, "EPHEMERIS_TYPE": 0, "CLASSIFICATION_TYPE": "U", "NORAD_CAT_ID": 34136, "ELEMENT_SET_NO": 999, "REV_AT_EPOCH": 89876, "BSTAR": 0.0008796771, "MEAN_MOTION_DOT": 7.058e-05, "MEAN_MOTION_DDOT": 0}, "tle": {"line1": "1 34136U 93036LH  25337.68661652  .00007058  00000+0  87968-3 0  9998", "line2": "2 34136  74.0219  60.4853 0086594 185.8072 298.4779 14.79958477898766"}}, "geometry": {"type": "Point", "coordinates": [60.82558014206483, 6.125368624594544]}}, {"type": "Feature", "properties": {"norad_id": 34139, "name": "COSMOS 2251 DEB", "group": "cosmos-2251-debris", "lat": -1.1479061646229896, "lon": -90.38850450260773, "alt_km": 670.7170718677899, "timestamp": "2025-12-04T09:47:37.913560+00:00", "meta": {"OBJECT_NAME": "COSMOS 2251 DEB", "OBJECT_ID": "1993-036LL", "EPOCH": "2025-12-03T20:53:10.226400", "MEAN_MOTION": 14.5884695, "ECCENTRICITY": 0.00426405, "INCLINATION": 74.0313, "RA_OF_ASC_NODE": 270.9645, "ARG_OF_PERICENTER": 343.5071, "MEAN_ANOMALY": 71.8719, "EPHEMERIS_TYPE": 0, "CLASSIFICATION_TYPE": "U", "NORAD_CAT_ID": 34139, "ELEMENT_SET_NO": 999, "REV_AT_EPOCH": 88020, "BSTAR": 0.0025933306, "MEAN_MOTION_DOT": 0.00012282, "MEAN_MOTION_DDOT": 0}, "tle": {"line1": "1 34139U 93036LL  25337.87025725  .00012282  00000+0  25933-2 0  9995", "line2": "2 34139  74.0313 270.9645 0042640 343.5071  71.8719 14.58846950880203"}}, "geometry": {"type": "Point", "coordinates": [-90.38850450260773, -1.1479061646229896]}}]}